[{"OBJECT_NAME":"STARLINK-32665","OBJECT_ID":"2024-229M","EPOCH":"2026-03-09T13:47:22.776288","MEAN_MOTION":15.27580721,"ECCENTRICITY":0.0001599,"INCLINATION":42.9995,"RA_OF_ASC_NODE":271.3734,"ARG_OF_PERICENTER":246.8294,"MEAN_ANOMALY":113.2389,"EPHEMERIS_TYPE":0,"CLASSIFICATION_TYPE":"U","NORAD_CAT_ID":62203,"ELEMENT_SET_NO":999,"REV_AT_EPOCH":7054,"BSTAR":0.00096895,"MEAN_MOTION_DOT":0.00026498,"MEAN_MOTION_DDOT":0},{"OBJECT_NAME":"OBJECT A","OBJECT_ID":"2025-234A","EPOCH":"2026-03-09T23:03:34.210368","MEAN_MOTION":15.32505956,"ECCENTRICITY":0.00130678,"INCLINATION":97.4388,"RA_OF_ASC_NODE":139.352,"ARG_OF_PERICENTER":148.634,"MEAN_ANOMALY":211.5684,"EPHEMERIS_TYPE":0,"CLASSIFICATION_TYPE":"U","NORAD_CAT_ID":66053,"ELEMENT_SET_NO":999,"REV_AT_EPOCH":2164,"BSTAR":0.0014840662,"MEAN_MOTION_DOT":0.00046856,"MEAN_MOTION_DDOT":0}]
